[{"OBJECT_NAME":"ONEWEB-0321","OBJECT_ID":"2021-083F","EPOCH":"2026-03-09T15:45:21.098016","MEAN_MOTION":13.20770889,"ECCENTRICITY":0.00018785,"INCLINATION":87.9172,"RA_OF_ASC_NODE":294.3086,"ARG_OF_PERICENTER":91.8709,"MEAN_ANOMALY":268.2639,"EPHEMERIS_TYPE":0,"CLASSIFICATION_TYPE":"U","NORAD_CAT_ID":49191,"ELEMENT_SET_NO":999,"REV_AT_EPOCH":22369,"BSTAR":-0.00044247625,"MEAN_MOTION_DOT":-1.67e-6,"MEAN_MOTION_DDOT":0},{"OBJECT_NAME":"DELTA 1 DEB","OBJECT_ID":"1968-002L","EPOCH":"2026-02-25T02:08:58.080768","MEAN_MOTION":12.91235474,"ECCENTRICITY":0.02929635,"INCLINATION":105.793,"RA_OF_ASC_NODE":139.4737,"ARG_OF_PERICENTER":49.3601,"MEAN_ANOMALY":68.101,"EPHEMERIS_TYPE":0,"CLASSIFICATION_TYPE":"U","NORAD_CAT_ID":29187,"ELEMENT_SET_NO":999,"REV_AT_EPOCH":58764,"BSTAR":0.00070165234,"MEAN_MOTION_DOT":1.5e-6,"MEAN_MOTION_DDOT":0}]
